SL-3 R/B                
1 13403U 82079B   26027.44716603  .00007413  00000+0  30061-3 0  9992
2 13403  81.1449 241.7594 0024502 307.4891  52.4113 15.24210977371417
SL-14 R/B               
1 13553U 82092B   26027.51976185  .00001000  00000+0  10952-3 0  9997
2 13553  82.5687 179.8951 0021831  78.7048 347.9737 14.86615848322811
SL-3 R/B                
1 13819U 83010B   26027.45657567  .00019323  00000+0  40791-3 0  9997
2 13819  81.1024  52.7503 0016926 185.3033 174.8034 15.44911120351575
SL-3 R/B                
1 14208U 83075B   26027.49974054  .00016913  00000+0  46058-3 0  9992
2 14208  97.6127  30.5619 0022966  22.2401 337.9833 15.37304603323825
COSMOS 1536             
1 14699U 84013A   26027.40802642  .00011269  00000+0  47291-3 0  9992
2 14699  82.5467 148.8542 0015614  70.2608 290.0311 15.23235852266337
SL-14 R/B               
1 14820U 84027B   26027.14535761  .00000738  00000+0  81485-4 0  9992
2 14820  82.5421 283.9817 0019438 109.2696 251.0626 14.85933297241465
SL-8 R/B                
1 15483U 85006B   26027.33783822  .00000545  00000+0  18933-3 0  9993
2 15483  74.0475 337.2357 0019752 262.3989 212.8029 14.37759528148089
SL-12 R/B(2)            
1 15772U 85042D   26027.47069778  .00000236  00000+0  12768-3 0  9993
2 15772  71.1076 174.8087 0035700 193.3814 224.1755 14.21968868108531
SL-14 R/B               
1 15945U 85069B   26027.47932268  .00000790  00000+0  86630-4 0  9992
2 15945  82.5243  63.6951 0018029 333.3557  26.6731 14.86383329166712
SL-16 R/B               
1 16182U 85097B   26027.27643860  .00000149  00000+0  98905-4 0  9998
2 16182  71.0000 227.7369 0009060 308.5413 224.8614 14.16591378 81363
SL-14 R/B               
1 16496U 86006B   26027.26523976  .00001312  00000+0  13664-3 0  9992
2 16496  82.5284 298.7222 0077912  50.7530 310.0566 14.86750908143057
COSMOS 1743             
1 16719U 86034A   26027.51079818  .00047181  00000+0  68759-3 0  9999
2 16719  82.5351 116.9413 0005497  87.9827 272.2056 15.55494630173840
