CCSDS_OMM_VERS = 2.0
CREATION_DATE  = 
ORIGINATOR     = 

OBJECT_NAME    = SL-3 R/B
OBJECT_ID      = 1982-079B
CENTER_NAME    = EARTH
REF_FRAME      = TEME
TIME_SYSTEM    = UTC
MEAN_ELEMENT_THEORY = SGP/SGP4

EPOCH          = 2026-01-27T10:43:55.144992
MEAN_MOTION    = 15.24210977
ECCENTRICITY   = .0024502
INCLINATION    = 81.1449
RA_OF_ASC_NODE = 241.7594
ARG_OF_PERICENTER = 307.4891
MEAN_ANOMALY   = 52.4113

EPHEMERIS_TYPE = 0
CLASSIFICATION_TYPE = U
NORAD_CAT_ID   = 13403
ELEMENT_SET_NO = 999
REV_AT_EPOCH   = 37141
BSTAR          = .30061E-3
MEAN_MOTION_DOT = .7413E-4
MEAN_MOTION_DDOT = 0

CCSDS_OMM_VERS = 2.0
CREATION_DATE  = 
ORIGINATOR     = 

OBJECT_NAME    = SL-14 R/B
OBJECT_ID      = 1982-092B
CENTER_NAME    = EARTH
REF_FRAME      = TEME
TIME_SYSTEM    = UTC
MEAN_ELEMENT_THEORY = SGP/SGP4

EPOCH          = 2026-01-27T12:28:27.423840
MEAN_MOTION    = 14.86615848
ECCENTRICITY   = .0021831
INCLINATION    = 82.5687
RA_OF_ASC_NODE = 179.8951
ARG_OF_PERICENTER = 78.7048
MEAN_ANOMALY   = 347.9737

EPHEMERIS_TYPE = 0
CLASSIFICATION_TYPE = U
NORAD_CAT_ID   = 13553
ELEMENT_SET_NO = 999
REV_AT_EPOCH   = 32281
BSTAR          = .10952E-3
MEAN_MOTION_DOT = .1E-4
MEAN_MOTION_DDOT = 0

CCSDS_OMM_VERS = 2.0
CREATION_DATE  = 
ORIGINATOR     = 

OBJECT_NAME    = SL-3 R/B
OBJECT_ID      = 1983-010B
CENTER_NAME    = EARTH
REF_FRAME      = TEME
TIME_SYSTEM    = UTC
MEAN_ELEMENT_THEORY = SGP/SGP4

EPOCH          = 2026-01-27T10:57:28.137888
MEAN_MOTION    = 15.44911120
ECCENTRICITY   = .0016926
INCLINATION    = 81.1024
RA_OF_ASC_NODE = 52.7503
ARG_OF_PERICENTER = 185.3033
MEAN_ANOMALY   = 174.8034

EPHEMERIS_TYPE = 0
CLASSIFICATION_TYPE = U
NORAD_CAT_ID   = 13819
ELEMENT_SET_NO = 999
REV_AT_EPOCH   = 35157
BSTAR          = .40791E-3
MEAN_MOTION_DOT = .19323E-3
MEAN_MOTION_DDOT = 0

CCSDS_OMM_VERS = 2.0
CREATION_DATE  = 
ORIGINATOR     = 

OBJECT_NAME    = SL-3 R/B
OBJECT_ID      = 1983-075B
CENTER_NAME    = EARTH
REF_FRAME      = TEME
TIME_SYSTEM    = UTC
MEAN_ELEMENT_THEORY = SGP/SGP4

EPOCH          = 2026-01-27T11:59:37.582656
MEAN_MOTION    = 15.37304603
ECCENTRICITY   = .0022966
INCLINATION    = 97.6127
RA_OF_ASC_NODE = 30.5619
ARG_OF_PERICENTER = 22.2401
MEAN_ANOMALY   = 337.9833

EPHEMERIS_TYPE = 0
CLASSIFICATION_TYPE = U
NORAD_CAT_ID   = 14208
ELEMENT_SET_NO = 999
REV_AT_EPOCH   = 32382
BSTAR          = .46058E-3
MEAN_MOTION_DOT = .16913E-3
MEAN_MOTION_DDOT = 0

CCSDS_OMM_VERS = 2.0
CREATION_DATE  = 
ORIGINATOR     = 

OBJECT_NAME    = COSMOS 1536
OBJECT_ID      = 1984-013A
CENTER_NAME    = EARTH
REF_FRAME      = TEME
TIME_SYSTEM    = UTC
MEAN_ELEMENT_THEORY = SGP/SGP4

EPOCH          = 2026-01-27T09:47:33.482688
MEAN_MOTION    = 15.23235852
ECCENTRICITY   = .0015614
INCLINATION    = 82.5467
RA_OF_ASC_NODE = 148.8542
ARG_OF_PERICENTER = 70.2608
MEAN_ANOMALY   = 290.0311

EPHEMERIS_TYPE = 0
CLASSIFICATION_TYPE = U
NORAD_CAT_ID   = 14699
ELEMENT_SET_NO = 999
REV_AT_EPOCH   = 26633
BSTAR          = .47291E-3
MEAN_MOTION_DOT = .11269E-3
MEAN_MOTION_DDOT = 0

CCSDS_OMM_VERS = 2.0
CREATION_DATE  = 
ORIGINATOR     = 

OBJECT_NAME    = SL-14 R/B
OBJECT_ID      = 1984-027B
CENTER_NAME    = EARTH
REF_FRAME      = TEME
TIME_SYSTEM    = UTC
MEAN_ELEMENT_THEORY = SGP/SGP4

EPOCH          = 2026-01-27T03:29:18.897504
MEAN_MOTION    = 14.85933297
ECCENTRICITY   = .00194388
INCLINATION    = 82.5421
RA_OF_ASC_NODE = 283.9817
ARG_OF_PERICENTER = 109.2696
MEAN_ANOMALY   = 251.0626

EPHEMERIS_TYPE = 0
CLASSIFICATION_TYPE = U
NORAD_CAT_ID   = 14820
ELEMENT_SET_NO = 999
REV_AT_EPOCH   = 24146
BSTAR          = .81484848E-4
MEAN_MOTION_DOT = .738E-5
MEAN_MOTION_DDOT = 0

CCSDS_OMM_VERS = 2.0
CREATION_DATE  = 
ORIGINATOR     = 

OBJECT_NAME    = SL-8 R/B
OBJECT_ID      = 1985-006B
CENTER_NAME    = EARTH
REF_FRAME      = TEME
TIME_SYSTEM    = UTC
MEAN_ELEMENT_THEORY = SGP/SGP4

EPOCH          = 2026-01-27T08:06:29.222208
MEAN_MOTION    = 14.37759528
ECCENTRICITY   = .0019752
INCLINATION    = 74.0475
RA_OF_ASC_NODE = 337.2357
ARG_OF_PERICENTER = 262.3989
MEAN_ANOMALY   = 212.8029

EPHEMERIS_TYPE = 0
CLASSIFICATION_TYPE = U
NORAD_CAT_ID   = 15483
ELEMENT_SET_NO = 999
REV_AT_EPOCH   = 14808
BSTAR          = .18933E-3
MEAN_MOTION_DOT = .545E-5
MEAN_MOTION_DDOT = 0

CCSDS_OMM_VERS = 2.0
CREATION_DATE  = 
ORIGINATOR     = 

OBJECT_NAME    = SL-12 R/B(2)
OBJECT_ID      = 1985-042D
CENTER_NAME    = EARTH
REF_FRAME      = TEME
TIME_SYSTEM    = UTC
MEAN_ELEMENT_THEORY = SGP/SGP4

EPOCH          = 2026-01-27T11:17:48.288192
MEAN_MOTION    = 14.21968868
ECCENTRICITY   = .00357
INCLINATION    = 71.1076
RA_OF_ASC_NODE = 174.8087
ARG_OF_PERICENTER = 193.3814
MEAN_ANOMALY   = 224.1755

EPHEMERIS_TYPE = 0
CLASSIFICATION_TYPE = U
NORAD_CAT_ID   = 15772
ELEMENT_SET_NO = 999
REV_AT_EPOCH   = 10853
BSTAR          = .12768E-3
MEAN_MOTION_DOT = .236E-5
MEAN_MOTION_DDOT = 0

CCSDS_OMM_VERS = 2.0
CREATION_DATE  = 
ORIGINATOR     = 

OBJECT_NAME    = SL-14 R/B
OBJECT_ID      = 1985-069B
CENTER_NAME    = EARTH
REF_FRAME      = TEME
TIME_SYSTEM    = UTC
MEAN_ELEMENT_THEORY = SGP/SGP4

EPOCH          = 2026-01-27T11:30:13.479552
MEAN_MOTION    = 14.86383329
ECCENTRICITY   = .0018029
INCLINATION    = 82.5243
RA_OF_ASC_NODE = 63.6951
ARG_OF_PERICENTER = 333.3557
MEAN_ANOMALY   = 26.6731

EPHEMERIS_TYPE = 0
CLASSIFICATION_TYPE = U
NORAD_CAT_ID   = 15945
ELEMENT_SET_NO = 999
REV_AT_EPOCH   = 16671
BSTAR          = .8663E-4
MEAN_MOTION_DOT = .79E-5
MEAN_MOTION_DDOT = 0

CCSDS_OMM_VERS = 2.0
CREATION_DATE  = 
ORIGINATOR     = 

OBJECT_NAME    = SL-16 R/B
OBJECT_ID      = 1985-097B
CENTER_NAME    = EARTH
REF_FRAME      = TEME
TIME_SYSTEM    = UTC
MEAN_ELEMENT_THEORY = SGP/SGP4

EPOCH          = 2026-01-27T06:38:04.295040
MEAN_MOTION    = 14.16591378
ECCENTRICITY   = .000906
INCLINATION    = 71.0000
RA_OF_ASC_NODE = 227.7369
ARG_OF_PERICENTER = 308.5413
MEAN_ANOMALY   = 224.8614

EPHEMERIS_TYPE = 0
CLASSIFICATION_TYPE = U
NORAD_CAT_ID   = 16182
ELEMENT_SET_NO = 999
REV_AT_EPOCH   = 8136
BSTAR          = .98905E-4
MEAN_MOTION_DOT = .149E-5
MEAN_MOTION_DDOT = 0

CCSDS_OMM_VERS = 2.0
CREATION_DATE  = 
ORIGINATOR     = 

OBJECT_NAME    = SL-14 R/B
OBJECT_ID      = 1986-006B
CENTER_NAME    = EARTH
REF_FRAME      = TEME
TIME_SYSTEM    = UTC
MEAN_ELEMENT_THEORY = SGP/SGP4

EPOCH          = 2026-01-27T06:21:56.715264
MEAN_MOTION    = 14.86750908
ECCENTRICITY   = .0077912
INCLINATION    = 82.5284
RA_OF_ASC_NODE = 298.7222
ARG_OF_PERICENTER = 50.7530
MEAN_ANOMALY   = 310.0566

EPHEMERIS_TYPE = 0
CLASSIFICATION_TYPE = U
NORAD_CAT_ID   = 16496
ELEMENT_SET_NO = 999
REV_AT_EPOCH   = 14305
BSTAR          = .13664E-3
MEAN_MOTION_DOT = .1312E-4
MEAN_MOTION_DDOT = 0

CCSDS_OMM_VERS = 2.0
CREATION_DATE  = 
ORIGINATOR     = 

OBJECT_NAME    = COSMOS 1743
OBJECT_ID      = 1986-034A
CENTER_NAME    = EARTH
REF_FRAME      = TEME
TIME_SYSTEM    = UTC
MEAN_ELEMENT_THEORY = SGP/SGP4

EPOCH          = 2026-01-27T12:15:32.962752
MEAN_MOTION    = 15.55494630
ECCENTRICITY   = .0005497
INCLINATION    = 82.5351
RA_OF_ASC_NODE = 116.9413
ARG_OF_PERICENTER = 87.9827
MEAN_ANOMALY   = 272.2056

EPHEMERIS_TYPE = 0
CLASSIFICATION_TYPE = U
NORAD_CAT_ID   = 16719
ELEMENT_SET_NO = 999
REV_AT_EPOCH   = 17384
BSTAR          = .68759E-3
MEAN_MOTION_DOT = .47181E-3
MEAN_MOTION_DDOT = 0

